NORAD_CAT_ID,OBJECT_NAME,OBJECT_TYPE,EPOCH,MEAN_MOTION,ECCENTRICITY,INCLINATION,RA_OF_ASC_NODE,ARG_OF_PERICENTER,MEAN_ANOMALY,BSTAR,MEAN_MOTION_DOT,MEAN_MOTION_DDOT,TLE_LINE0,TLE_LINE1,TLE_LINE2,SEMIMAJOR_AXIS,PERIOD,APOGEE,PERIGEE,DECAYED
52088.0,STARLINK-3537,PAYLOAD,2022-04-01 20:00:01,15.91003222,0.0008544,53.2158,75.5796,329.5475,332.539,0.00084498,0.00270293,3.8165e-05,0 STARLINK-3537,1 52088U 22029A   22091.83334491  .00270293  38165-4  84498-3 0  9993,2 52088  53.2158  75.5796 0008544 329.5475 332.5390 15.91003222  3423,6677.611,90.509,305.182,293.771,0.0
52088.0,STARLINK-3537,PAYLOAD,2022-04-01 22:00:00,15.91087819,0.0008408999999999,53.2159,75.1559,329.8094,89.8962,0.00088482,0.0028441,4.115e-05,0 STARLINK-3537,1 52088U 22029A   22091.91667824  .00284410  41150-4  88482-3 0  9992,2 52088  53.2159  75.1559 0008409 329.8094  89.8962 15.91087819  2911,6677.375,90.504,304.855,293.625,0.0
52088.0,STARLINK-3537,PAYLOAD,2022-04-02 04:00:00,15.91245446,0.0008486,53.216,73.8873,331.0577,81.5297,0.00067668,0.00218533,2.8759e-05,0 STARLINK-3537,1 52088U 22029A   22092.16667824  .00218533  28759-4  67668-3 0  9996,2 52088  53.2160  73.8873 0008486 331.0577  81.5297 15.91245446  3477,6676.934,90.495,304.465,293.133,0.0
52088.0,STARLINK-3537,PAYLOAD,2022-04-02 12:00:00,15.91388701,0.0008613999999999,53.2159,72.1936,332.0187,191.25,0.00068205,0.00221977,2.9361e-05,0 STARLINK-3537,1 52088U 22029A   22092.50001157  .00221977  29361-4  68205-3 0  9999,2 52088  53.2159  72.1936 0008614 332.0187 191.2500 15.91388701  3533,6676.533,90.487,304.149,292.647,0.0
52088.0,STARLINK-3537,PAYLOAD,2022-04-02 20:00:01,15.91520886,0.0008318999999999,53.2161,70.4971,332.1311,302.0264,0.00085631,0.00281414,4.0676e-05,0 STARLINK-3537,1 52088U 22029A   22092.83334491  .00281414  40676-4  85631-3 0  9991,2 52088  53.2161  70.4971 0008319 332.1311 302.0264 15.91520886  3584,6676.163000000001,90.479,303.582,292.474,0.0
52088.0,STARLINK-3537,PAYLOAD,2022-04-02 22:00:01,15.91602408,0.0008128,53.2164,70.0735,332.5728,59.395,0.0012324,0.00408025,7.4502e-05,0 STARLINK-3537,1 52088U 22029A   22092.91668981  .00408025  74502-4  12324-2 0  9996,2 52088  53.2164  70.0735 0008128 332.5728  59.3950 15.91602408  3074,6675.935,90.475,303.226,292.374,0.0
52088.0,STARLINK-3537,PAYLOAD,2022-04-03 04:00:00,15.91817607,0.0008176,53.2164,68.8041,333.3692,51.9067,0.001067,0.00356883,5.9346e-05,0 STARLINK-3537,1 52088U 22029A   22093.16667824  .00356883  59346-4  10670-2 0  9994,2 52088  53.2164  68.8041 0008176 333.3692  51.9067 15.91817607  3639,6675.334,90.463,302.656,291.741,0.0
52088.0,STARLINK-3537,PAYLOAD,2022-04-03 12:00:00,15.91866179,0.0008355,53.2164,67.1091,334.2501,162.2015,0.00063182,0.00210564,2.7625e-05,0 STARLINK-3537,1 52088U 22029A   22093.50001157  .00210564  27625-4  63182-3 0  9990,2 52088  53.2164  67.1091 0008355 334.2501 162.2015 15.91866179  3697,6675.198,90.46,302.64,291.486,0.0
52088.0,STARLINK-3537,PAYLOAD,2022-04-03 20:00:01,15.91958529,0.0008115,53.2167,65.4114,334.7935,273.1345,0.00074752,0.00250909,3.4668e-05,0 STARLINK-3537,1 52088U 22029A   22093.83335648  .00250909  34668-4  74752-3 0  9998,2 52088  53.2167  65.4114 0008115 334.7935 273.1345 15.91958529  3742,6674.94,90.455,302.221,291.388,0.0
52088.0,STARLINK-3537,PAYLOAD,2022-04-03 22:00:00,15.92012615,0.0008027,53.217,64.9877,335.4937,30.2382,0.00066901,0.0022483,2.9995e-05,0 STARLINK-3537,1 52088U 22029A   22093.91667824  .00224830  29995-4  66901-3 0  9999,2 52088  53.2170  64.9877 0008027 335.4937  30.2382 15.92012615  3233,6674.788000000001,90.452,302.011,291.296,0.0
52088.0,STARLINK-3537,PAYLOAD,2022-04-04 04:00:00,15.92139885,0.0008132999999999,53.2167,63.7175,336.7816,22.6601,0.00057715,0.00194818,2.5289e-05,0 STARLINK-3537,1 52088U 22029A   22094.16667824  .00194818  25289-4  57715-3 0  9994,2 52088  53.2167  63.7175 0008133 336.7816  22.6601 15.92139885  3794,6674.433000000001,90.444,301.726,290.869,0.0
52088.0,STARLINK-3537,PAYLOAD,2022-04-04 12:00:00,15.92309395,0.0008047,53.2161,62.0212,337.0429,134.1692,0.00061446,0.00209492,2.7556e-05,0 STARLINK-3537,1 52088U 22029A   22094.50001157  .00209492  27556-4  61446-3 0  9993,2 52088  53.2161  62.0212 0008047 337.0429 134.1692 15.92309395  3851,6673.959,90.435,301.195,290.453,0.0
52088.0,STARLINK-3537,PAYLOAD,2022-04-04 14:00:01,15.92353942,0.0007949,53.2162,61.5964,336.9035,252.283,0.00057682,0.00196901,2.5639e-05,0 STARLINK-3537,1 52088U 22029A   22094.58334491  .00196901  25639-4  57682-3 0  9998,2 52088  53.2162  61.5964 0007949 336.9035 252.2830 15.92353942  3348,6673.835,90.432,301.005,290.395,0.0
52088.0,STARLINK-3537,PAYLOAD,2022-04-04 20:00:01,15.924404,0.0007737,53.2163,60.3226,336.7974,246.3952,0.00082233,0.00283382,4.1462e-05,0 STARLINK-3537,1 52088U 22029A   22094.83334491  .00283382  41462-4  82233-3 0  9998,2 52088  53.2163  60.3226 0007737 336.7974 246.3952 15.92440400  3909,6673.593000000003,90.427,300.621,290.295,0.0
52088.0,STARLINK-3537,PAYLOAD,2022-04-04 22:00:00,15.92501284,0.0007673,53.2167,59.8986,337.4773,3.7306,0.00074016,0.00255548,3.5736e-05,0 STARLINK-3537,1 52088U 22029A   22094.91667824  .00255548  35736-4  74016-3 0  9996,2 52088  53.2167  59.8986 0007673 337.4773   3.7306 15.92501284  3392,6673.4230000000025,90.424,300.408,290.1670000000001,0.0
52088.0,STARLINK-3537,PAYLOAD,2022-04-05 04:00:00,15.92623591,0.0007834,53.2167,58.6275,338.82,356.5236,0.00063903,0.00221636,2.9611e-05,0 STARLINK-3537,1 52088U 22029A   22095.16667824  .00221636  29611-4  63903-3 0  9993,2 52088  53.2167  58.6275 0007834 338.8200 356.5236 15.92623591  3958,6673.081,90.417,300.1740000000001,289.719,0.0
52088.0,STARLINK-3537,PAYLOAD,2022-04-05 14:00:01,15.92811144,0.0007714999999999,53.2165,56.5048,338.8909,226.9496,0.00054642,0.00190907,2.4853e-05,0 STARLINK-3537,1 52088U 22029A   22095.58335648  .00190907  24853-4  54642-3 0  9994,2 52088  53.2165  56.5048 0007715 338.8909 226.9496 15.92811144  4025,6672.557,90.406,299.57,289.275,0.0
52088.0,STARLINK-3537,PAYLOAD,2022-04-05 20:00:01,15.92899787,0.0007469999999999,53.2166,55.2305,338.9894,221.196,0.00075998,0.00268052,3.8385e-05,0 STARLINK-3537,1 52088U 22029A   22095.83334491  .00268052  38385-4  75998-3 0  9996,2 52088  53.2166  55.2305 0007470 338.9894 221.1960 15.92899787  4066,6672.31,90.401,299.159,289.191,0.0
52088.0,STARLINK-3537,PAYLOAD,2022-04-05 22:00:00,15.92960093,0.0007445,53.2168,54.8063,339.4915,338.846,0.00067052,0.00236863,3.2361e-05,0 STARLINK-3537,1 52088U 22029A   22095.91667824  .00236863  32361-4  67052-3 0  9999,2 52088  53.2168  54.8063 0007445 339.4915 338.8460 15.92960093  3559,6672.141,90.398,298.974,289.039,0.0
52088.0,STARLINK-3537,PAYLOAD,2022-04-06 04:00:00,15.93039698,0.0007632,53.2167,53.5346,340.8529,332.001,0.00052175,0.00184364,2.3967e-05,0 STARLINK-3537,1 52088U 22029A   22096.16667824  .00184364  23967-4  52175-3 0  9997,2 52088  53.2167  53.5346 0007632 340.8529 332.0010 15.93039698  4112,6671.919,90.393,298.876,288.692,0.0
52088.0,STARLINK-3537,PAYLOAD,2022-04-06 12:00:00,15.93220513,0.0007535,53.2167,51.8354,340.8228,84.8993,0.00054569,0.00194847,2.551e-05,0 STARLINK-3537,1 52088U 22029A   22096.50001157  .00194847  25510-4  54569-3 0  9998,2 52088  53.2167  51.8354 0007535 340.8228  84.8993 15.93220513  4165,6671.4140000000025,90.383,298.306,288.252,0.0
52088.0,STARLINK-3537,PAYLOAD,2022-04-06 14:00:01,15.93256184,0.0007454,53.217,51.4101,340.7366,203.2349,0.00055283,0.00197808,2.5959e-05,0 STARLINK-3537,1 52088U 22029A   22096.58334491  .00197808  25959-4  55283-3 0  9997,2 52088  53.2170  51.4101 0007454 340.7366 203.2349 15.93256184  3666,6671.315,90.381,298.153,288.207,0.0
52088.0,STARLINK-3537,PAYLOAD,2022-04-06 20:00:01,15.93349077,0.0007252,53.217,50.1349,341.3469,197.4334,0.00071665,0.0025867,3.6638e-05,0 STARLINK-3537,1 52088U 22029A   22096.83334491  .00258670  36638-4  71665-3 0  9998,2 52088  53.2170  50.1349 0007252 341.3469 197.4334 15.93349077  4228,6671.055,90.376,297.758,288.083,0.0
52088.0,STARLINK-3537,PAYLOAD,2022-04-06 22:00:00,15.93409681,0.0007254,53.2171,49.7105,341.872,315.1946,0.00061451,0.00222046,2.9881e-05,0 STARLINK-3537,1 52088U 22029A   22096.91667824  .00222046  29881-4  61451-3 0  9998,2 52088  53.2171  49.7105 0007254 341.8720 315.1946 15.93409681  3719,6670.886,90.372,297.59,287.9120000000001,0.0
52088.0,STARLINK-3537,PAYLOAD,2022-04-07 04:00:00,15.93488359,0.0007426,53.2166,48.4378,343.3488,308.6444,0.00056386,0.00204353,2.7013e-05,0 STARLINK-3537,1 52088U 22029A   22097.16667824  .00204353  27013-4  56386-3 0  9993,2 52088  53.2166  48.4378 0007426 343.3488 308.6444 15.93488359  4271,6670.667,90.368,297.485,287.578,0.0
52088.0,STARLINK-3537,PAYLOAD,2022-04-07 14:00:01,15.93690647,0.0007162,53.2163,46.3118,342.8092,180.9624,0.0005491,0.00201055,2.6546e-05,0 STARLINK-3537,1 52088U 22029A   22097.58334491  .00201055  26546-4  54910-3 0  9997,2 52088  53.2163  46.3118 0007162 342.8092 180.9624 15.93690647  3735,6670.102,90.356,296.744,287.19,0.0
52088.0,STARLINK-3537,PAYLOAD,2022-04-07 20:00:01,15.93833432,0.0006898,53.2164,45.0357,343.0074,176.0024,0.00082503,0.00306044,4.7272e-05,0 STARLINK-3537,1 52088U 22029A   22097.83334491  .00306044  47272-4  82503-3 0  9997,2 52088  53.2164  45.0357 0006898 343.0074 176.0024 15.93833432  4388,6669.704000000002,90.348,296.17,286.968,0.0
52088.0,STARLINK-3537,PAYLOAD,2022-04-07 22:00:00,15.93901534,0.0006926,53.2165,44.6111,343.4123,294.031,0.00072282,0.00268716,3.8892e-05,0 STARLINK-3537,1 52088U 22029A   22097.91667824  .00268716  38892-4  72282-3 0  9999,2 52088  53.2165  44.6111 0006926 343.4123 294.0310 15.93901534  3717,6669.514,90.344,295.998,286.76,0.0
52088.0,STARLINK-3537,PAYLOAD,2022-04-08 04:00:00,15.9398516,0.0007154,53.2165,43.3374,345.0351,287.7732,0.00065334,0.00243703,3.3934000000000004e-05,0 STARLINK-3537,1 52088U 22029A   22098.16667824  .00243703  33934-4  65334-3 0  9998,2 52088  53.2165  43.3374 0007154 345.0351 287.7732 15.93985160  4433,6669.281,90.34,295.9170000000001,286.374,0.0
